{
  "type": "FeatureCollection",
  "features": [
    {
      "type": "Feature",
      "properties": {
        "norad_id": 29857,
        "name": "FENGYUN 1C DEB",
        "group": "fengyun-1c-debris",
        "lat": -65.98584089435036,
        "lon": 15.667990612633849,
        "alt_km": 823.4650983227175,
        "timestamp": "2025-12-15T04:01:20.723323+00:00",
        "meta_object_name": "FENGYUN 1C DEB",
        "meta_object_id": "1999-025FB",
        "meta_epoch": "2025-12-14T00:32:09.267936",
        "meta_mean_motion": 13.8188601,
        "meta_eccentricity": 0.01927571,
        "meta_inclination": 98.4232,
        "meta_ra_of_asc_node": 355.2187,
        "meta_arg_of_pericenter": 290.898,
        "meta_mean_anomaly": 67.1637,
        "meta_ephemeris_type": 0,
        "meta_classification_type": "U",
        "meta_norad_cat_id": 29857,
        "meta_element_set_no": 999,
        "meta_rev_at_epoch": 94793,
        "meta_bstar": 0.0020345049,
        "meta_mean_motion_dot": 2.474e-05,
        "meta_mean_motion_ddot": 0,
        "tle_line1": "1 29857U 99025FB  25348.02232949  .00002474  00000+0  20345-2 0  9991",
        "tle_line2": "2 29857  98.4232 355.2187 0192757 290.8980  67.1637 13.81886010947937"
      },
      "geometry": {
        "type": "Point",
        "coordinates": [
          15.667990612633849,
          -65.98584089435036
        ]
      }
    },
    {
      "type": "Feature",
      "properties": {
        "norad_id": 29858,
        "name": "FENGYUN 1C DEB",
        "group": "fengyun-1c-debris",
        "lat": 18.691869816791797,
        "lon": -86.12840136324016,
        "alt_km": 1001.9315748525887,
        "timestamp": "2025-12-15T04:01:20.723333+00:00",
        "meta_object_name": "FENGYUN 1C DEB",
        "meta_object_id": "1999-025FC",
        "meta_epoch": "2025-12-13T18:51:45.697248",
        "meta_mean_motion": 13.77790709,
        "meta_eccentricity": 0.01983227,
        "meta_inclination": 99.2127,
        "meta_ra_of_asc_node": 89.3832,
        "meta_arg_of_pericenter": 61.5873,
        "meta_mean_anomaly": 87.71,
        "meta_ephemeris_type": 0,
        "meta_classification_type": "U",
        "meta_norad_cat_id": 29858,
        "meta_element_set_no": 999,
        "meta_rev_at_epoch": 94568,
        "meta_bstar": 0.0013939069,
        "meta_mean_motion_dot": 1.572e-05,
        "meta_mean_motion_ddot": 0,
        "tle_line1": "1 29858U 99025FC  25347.78594557  .00001572  00000+0  13939-2 0  9999",
        "tle_line2": "2 29858  99.2127  89.3832 0198322  61.5873  87.7100 13.77790709945687"
      },
      "geometry": {
        "type": "Point",
        "coordinates": [
          -86.12840136324016,
          18.691869816791797
        ]
      }
    },
    {
      "type": "Feature",
      "properties": {
        "norad_id": 29859,
        "name": "FENGYUN 1C DEB",
        "group": "fengyun-1c-debris",
        "lat": 40.511828846593204,
        "lon": 176.3825367818474,
        "alt_km": 1191.4115232270506,
        "timestamp": "2025-12-15T04:01:20.723343+00:00",
        "meta_object_name": "FENGYUN 1C DEB",
        "meta_object_id": "1999-025FD",
        "meta_epoch": "2025-12-14T01:35:48.063264",
        "meta_mean_motion": 13.74044832,
        "meta_eccentricity": 0.02948653,
        "meta_inclination": 98.3355,
        "meta_ra_of_asc_node": 182.6163,
        "meta_arg_of_pericenter": 209.3898,
        "meta_mean_anomaly": 149.0391,
        "meta_ephemeris_type": 0,
        "meta_classification_type": "U",
        "meta_norad_cat_id": 29859,
        "meta_element_set_no": 999,
        "meta_rev_at_epoch": 93998,
        "meta_bstar": 0.0028015738,
        "meta_mean_motion_dot": 3.568e-05,
        "meta_mean_motion_ddot": 0,
        "tle_line1": "1 29859U 99025FD  25348.06652851  .00003568  00000+0  28016-2 0  9993",
        "tle_line2": "2 29859  98.3355 182.6163 0294865 209.3898 149.0391 13.74044832939989"
      },
      "geometry": {
        "type": "Point",
        "coordinates": [
          176.3825367818474,
          40.511828846593204
        ]
      }
    },
    {
      "type": "Feature",
      "properties": {
        "norad_id": 29860,
        "name": "FENGYUN 1C DEB",
        "group": "fengyun-1c-debris",
        "lat": -31.495397015500107,
        "lon": -162.47371117209275,
        "alt_km": 1069.131743684059,
        "timestamp": "2025-12-15T04:01:20.723353+00:00",
        "meta_object_name": "FENGYUN 1C DEB",
        "meta_object_id": "1999-025FE",
        "meta_epoch": "2025-12-14T01:07:11.024832",
        "meta_mean_motion": 13.77537141,
        "meta_eccentricity": 0.02210294,
        "meta_inclination": 98.6179,
        "meta_ra_of_asc_node": 21.8396,
        "meta_arg_of_pericenter": 339.7316,
        "meta_mean_anomaly": 78.2457,
        "meta_ephemeris_type": 0,
        "meta_classification_type": "U",
        "meta_norad_cat_id": 29860,
        "meta_element_set_no": 999,
        "meta_rev_at_epoch": 94157,
        "meta_bstar": 0.0026871702,
        "meta_mean_motion_dot": 3.168e-05,
        "meta_mean_motion_ddot": 0,
        "tle_line1": "1 29860U 99025FE  25348.04665538  .00003168  00000+0  26872-2 0  9993",
        "tle_line2": "2 29860  98.6179  21.8396 0221029 339.7316  78.2457 13.77537141941572"
      },
      "geometry": {
        "type": "Point",
        "coordinates": [
          -162.47371117209275,
          -31.495397015500107
        ]
      }
    },
    {
      "type": "Feature",
      "properties": {
        "norad_id": 29865,
        "name": "FENGYUN 1C DEB",
        "group": "fengyun-1c-debris",
        "lat": 33.1289536544394,
        "lon": 86.08293169133309,
        "alt_km": 539.4576417186909,
        "timestamp": "2025-12-15T04:01:20.723363+00:00",
        "meta_object_name": "FENGYUN 1C DEB",
        "meta_object_id": "1999-025FK",
        "meta_epoch": "2025-12-14T08:29:54.747168",
        "meta_mean_motion": 14.82622023,
        "meta_eccentricity": 0.01163873,
        "meta_inclination": 98.9202,
        "meta_ra_of_asc_node": 259.293,
        "meta_arg_of_pericenter": 136.2409,
        "meta_mean_anomaly": 350.3664,
        "meta_ephemeris_type": 0,
        "meta_classification_type": "U",
        "meta_norad_cat_id": 29865,
        "meta_element_set_no": 999,
        "meta_rev_at_epoch": 782,
        "meta_bstar": 0.00065614482,
        "meta_mean_motion_dot": 5.881e-05,
        "meta_mean_motion_ddot": 0,
        "tle_line1": "1 29865U 99025FK  25348.35410587  .00005881  00000+0  65614-3 0  9996",
        "tle_line2": "2 29865  98.9202 259.2930 0116387 136.2409 350.3664 14.82622023  7827"
      },
      "geometry": {
        "type": "Point",
        "coordinates": [
          86.08293169133309,
          33.1289536544394
        ]
      }
    },
    {
      "type": "Feature",
      "properties": {
        "norad_id": 29866,
        "name": "FENGYUN 1C DEB",
        "group": "fengyun-1c-debris",
        "lat": 66.01597032516223,
        "lon": 173.36147282056805,
        "alt_km": 681.3756216220872,
        "timestamp": "2025-12-15T04:01:20.723373+00:00",
        "meta_object_name": "FENGYUN 1C DEB",
        "meta_object_id": "1999-025FL",
        "meta_epoch": "2025-12-13T22:06:46.683360",
        "meta_mean_motion": 14.64219725,
        "meta_eccentricity": 0.01944252,
        "meta_inclination": 98.0375,
        "meta_ra_of_asc_node": 333.626,
        "meta_arg_of_pericenter": 211.118,
        "meta_mean_anomaly": 178.5498,
        "meta_ephemeris_type": 0,
        "meta_classification_type": "U",
        "meta_norad_cat_id": 29866,
        "meta_element_set_no": 999,
        "meta_rev_at_epoch": 344,
        "meta_bstar": 0.0003638615,
        "meta_mean_motion_dot": 2.468e-05,
        "meta_mean_motion_ddot": 0,
        "tle_line1": "1 29866U 99025FL  25347.92137365  .00002468  00000+0  36386-3 0  9991",
        "tle_line2": "2 29866  98.0375 333.6260 0194425 211.1180 178.5498 14.64219725  3441"
      },
      "geometry": {
        "type": "Point",
        "coordinates": [
          173.36147282056805,
          66.01597032516223
        ]
      }
    },
    {
      "type": "Feature",
      "properties": {
        "norad_id": 29868,
        "name": "FENGYUN 1C DEB",
        "group": "fengyun-1c-debris",
        "lat": 77.9741962244105,
        "lon": -6.119827593511706,
        "alt_km": 611.6275104033621,
        "timestamp": "2025-12-15T04:01:20.723383+00:00",
        "meta_object_name": "FENGYUN 1C DEB",
        "meta_object_id": "1999-025FN",
        "meta_epoch": "2025-12-14T01:55:38.561952",
        "meta_mean_motion": 14.78449059,
        "meta_eccentricity": 0.01965886,
        "meta_inclination": 97.9507,
        "meta_ra_of_asc_node": 33.8053,
        "meta_arg_of_pericenter": 359.7142,
        "meta_mean_anomaly": 55.4718,
        "meta_ephemeris_type": 0,
        "meta_classification_type": "U",
        "meta_norad_cat_id": 29868,
        "meta_element_set_no": 999,
        "meta_rev_at_epoch": 315,
        "meta_bstar": 0.00075388707,
        "meta_mean_motion_dot": 7.554e-05,
        "meta_mean_motion_ddot": 0,
        "tle_line1": "1 29868U 99025FN  25348.08030743  .00007554  00000+0  75389-3 0  9990",
        "tle_line2": "2 29868  97.9507  33.8053 0196588 359.7142  55.4718 14.78449059  3152"
      },
      "geometry": {
        "type": "Point",
        "coordinates": [
          -6.119827593511706,
          77.9741962244105
        ]
      }
    }
  ]
}